[
    {
        "Altitude(m)": 562121.5881909159,
        "Argument of Periapsis(deg)": 0.006622991110713501,
        "Eccentricity": 0.0,
        "Inclination(deg)": 53.0,
        "Latitude(deg)": -29.055565958355345,
        "Longitude(deg)": -155.37848450372354,
        "Mean Anomaly(deg)": -37.181107132422376,
        "RAAN(deg)": 329.990143368528,
        "Satellite Name": "Starlink Shell 1 1471",
        "Satellite Number": 1471,
        "Semi-Major Axis(m)": 6931778.249405717,
        "Time(s)": 190
    },
    {
        "Altitude(m)": 561947.008804321,
        "Argument of Periapsis(deg)": 0.0069715695902247375,
        "Eccentricity": 0.0,
        "Inclination(deg)": 53.0,
        "Latitude(deg)": -28.598329562348123,
        "Longitude(deg)": -154.9306749333347,
        "Mean Anomaly(deg)": -36.55427592886563,
        "RAAN(deg)": 329.9896245984506,
        "Satellite Name": "Starlink Shell 1 1471",
        "Satellite Number": 1471,
        "Semi-Major Axis(m)": 6931778.249405717,
        "Time(s)": 200
    },
    {
        "Altitude(m)": 561772.7943866831,
        "Argument of Periapsis(deg)": 0.007320148069735974,
        "Eccentricity": 0.0,
        "Inclination(deg)": 53.0,
        "Latitude(deg)": -28.139300055882156,
        "Longitude(deg)": -154.48707068596858,
        "Mean Anomaly(deg)": -35.92744472530893,
        "RAAN(deg)": 329.98910582837306,
        "Satellite Name": "Starlink Shell 1 1471",
        "Satellite Number": 1471,
        "Semi-Major Axis(m)": 6931778.249405717,
        "Time(s)": 210
    },
    {
        "Altitude(m)": 561599.0095592891,
        "Argument of Periapsis(deg)": 0.007668726549247212,
        "Eccentricity": 0.0,
        "Inclination(deg)": 53.0,
        "Latitude(deg)": -27.678525042638753,
        "Longitude(deg)": -154.04757225068767,
        "Mean Anomaly(deg)": -35.30061352175228,
        "RAAN(deg)": 329.98858705829554,
        "Satellite Name": "Starlink Shell 1 1471",
        "Satellite Number": 1471,
        "Semi-Major Axis(m)": 6931778.249405717,
        "Time(s)": 220
    },
    {
        "Altitude(m)": 561425.7186048714,
        "Argument of Periapsis(deg)": 0.00801730502875845,
        "Eccentricity": 0.0,
        "Inclination(deg)": 53.0,
        "Latitude(deg)": -27.216051101109198,
        "Longitude(deg)": -153.61208141672577,
        "Mean Anomaly(deg)": -34.673782318195435,
        "RAAN(deg)": 329.98806828821813,
        "Satellite Name": "Starlink Shell 1 1471",
        "Satellite Number": 1471,
        "Semi-Major Axis(m)": 6931778.249405717,
        "Time(s)": 230
    },
    {
        "Altitude(m)": 561252.985438735,
        "Argument of Periapsis(deg)": 0.008365883508269684,
        "Eccentricity": 0.0,
        "Inclination(deg)": 53.0,
        "Latitude(deg)": -26.75192381398821,
        "Longitude(deg)": -153.1805007683708,
        "Mean Anomaly(deg)": -34.046951114638794,
        "RAAN(deg)": 329.98754951814067,
        "Satellite Name": "Starlink Shell 1 1471",
        "Satellite Number": 1471,
        "Semi-Major Axis(m)": 6931778.249405717,
        "Time(s)": 240
    },
    {
        "Altitude(m)": 561080.8735801167,
        "Argument of Periapsis(deg)": 0.008714461987780921,
        "Eccentricity": 0.0,
        "Inclination(deg)": 53.0,
        "Latitude(deg)": -26.28618779709488,
        "Longitude(deg)": -152.75273469003866,
        "Mean Anomaly(deg)": -33.4201199110821,
        "RAAN(deg)": 329.98703074806315,
        "Satellite Name": "Starlink Shell 1 1471",
        "Satellite Number": 1471,
        "Semi-Major Axis(m)": 6931778.249405717,
        "Time(s)": 250
    },
    {
        "Altitude(m)": 560909.446123678,
        "Argument of Periapsis(deg)": 0.009063040467292158,
        "Eccentricity": 0.0,
        "Inclination(deg)": 53.0,
        "Latitude(deg)": -25.818886727813947,
        "Longitude(deg)": -152.3286888560164,
        "Mean Anomaly(deg)": -32.79328870752535,
        "RAAN(deg)": 329.9865119779857,
        "Satellite Name": "Starlink Shell 1 1471",
        "Satellite Number": 1471,
        "Semi-Major Axis(m)": 6931778.249405717,
        "Time(s)": 260
    },
    {
        "Altitude(m)": 560738.7657112059,
        "Argument of Periapsis(deg)": 0.009411618946803396,
        "Eccentricity": 0.0,
        "Inclination(deg)": 53.0,
        "Latitude(deg)": -25.350063373041205,
        "Longitude(deg)": -151.90826971795195,
        "Mean Anomaly(deg)": -32.1664575039686,
        "RAAN(deg)": 329.9859932079082,
        "Satellite Name": "Starlink Shell 1 1471",
        "Satellite Number": 1471,
        "Semi-Major Axis(m)": 6931778.249405717,
        "Time(s)": 270
    },
    {
        "Altitude(m)": 560568.8945035286,
        "Argument of Periapsis(deg)": 0.009760197426314633,
        "Eccentricity": 0.0,
        "Inclination(deg)": 53.0,
        "Latitude(deg)": -24.879759616621907,
        "Longitude(deg)": -151.49138550315766,
        "Mean Anomaly(deg)": -31.539626300411907,
        "RAAN(deg)": 329.98547443783076,
        "Satellite Name": "Starlink Shell 1 1471",
        "Satellite Number": 1471,
        "Semi-Major Axis(m)": 6931778.249405717,
        "Time(s)": 280
    },
    {
        "Altitude(m)": 560399.8941526281,
        "Argument of Periapsis(deg)": 0.01010877590582587,
        "Eccentricity": 0.0,
        "Inclination(deg)": 53.0,
        "Latitude(deg)": -24.4080164862799,
        "Longitude(deg)": -151.07794569816159,
        "Mean Anomaly(deg)": -30.912795096855213,
        "RAAN(deg)": 329.9849556677533,
        "Satellite Name": "Starlink Shell 1 1471",
        "Satellite Number": 1471,
        "Semi-Major Axis(m)": 6931778.249405717,
        "Time(s)": 290
    },
    {
        "Altitude(m)": 560231.825774028,
        "Argument of Periapsis(deg)": 0.010457354385337106,
        "Eccentricity": 0.0,
        "Inclination(deg)": 53.0,
        "Latitude(deg)": -23.93487418003179,
        "Longitude(deg)": -150.6678605305479,
        "Mean Anomaly(deg)": -30.285963893298415,
        "RAAN(deg)": 329.9844368976758,
        "Satellite Name": "Starlink Shell 1 1471",
        "Satellite Number": 1471,
        "Semi-Major Axis(m)": 6931778.249405717,
        "Time(s)": 300
    },
    {
        "Altitude(m)": 560064.7499193752,
        "Argument of Periapsis(deg)": 0.010805932864848343,
        "Eccentricity": 0.0,
        "Inclination(deg)": 53.0,
        "Latitude(deg)": -23.460372092079435,
        "Longitude(deg)": -150.26104196211665,
        "Mean Anomaly(deg)": -29.65913268974172,
        "RAAN(deg)": 329.9839181275983,
        "Satellite Name": "Starlink Shell 1 1471",
        "Satellite Number": 1471,
        "Semi-Major Axis(m)": 6931778.249405717,
        "Time(s)": 310
    },
    {
        "Altitude(m)": 559898.726549341,
        "Argument of Periapsis(deg)": 0.01115451134435958,
        "Eccentricity": 0.0,
        "Inclination(deg)": 53.0,
        "Latitude(deg)": -22.984548838185653,
        "Longitude(deg)": -149.8574031677611,
        "Mean Anomaly(deg)": -29.032301486185123,
        "RAAN(deg)": 329.9833993575209,
        "Satellite Name": "Starlink Shell 1 1471",
        "Satellite Number": 1471,
        "Semi-Major Axis(m)": 6931778.249405717,
        "Time(s)": 320
    },
    {
        "Altitude(m)": 559733.8150067633,
        "Argument of Periapsis(deg)": 0.011503089823870818,
        "Eccentricity": 0.0,
        "Inclination(deg)": 53.0,
        "Latitude(deg)": -22.507442280531894,
        "Longitude(deg)": -149.45685801307332,
        "Mean Anomaly(deg)": -28.405470282628325,
        "RAAN(deg)": 329.9828805874434,
        "Satellite Name": "Starlink Shell 1 1471",
        "Satellite Number": 1471,
        "Semi-Major Axis(m)": 6931778.249405717,
        "Time(s)": 330
    },
    {
        "Altitude(m)": 559570.073990072,
        "Argument of Periapsis(deg)": 0.011851668303382053,
        "Eccentricity": 0.0,
        "Inclination(deg)": 53.0,
        "Latitude(deg)": -22.02908955205759,
        "Longitude(deg)": -149.05932204367497,
        "Mean Anomaly(deg)": -27.77863907907158,
        "RAAN(deg)": 329.98236181736587,
        "Satellite Name": "Starlink Shell 1 1471",
        "Satellite Number": 1471,
        "Semi-Major Axis(m)": 6931778.249405717,
        "Time(s)": 340
    },
    {
        "Altitude(m)": 559407.5615270624,
        "Argument of Periapsis(deg)": 0.012200246782893292,
        "Eccentricity": 0.0,
        "Inclination(deg)": 53.0,
        "Latitude(deg)": -21.549527080289202,
        "Longitude(deg)": -148.6647119606442,
        "Mean Anomaly(deg)": -27.151807875514933,
        "RAAN(deg)": 329.98184304728846,
        "Satellite Name": "Starlink Shell 1 1471",
        "Satellite Number": 1471,
        "Semi-Major Axis(m)": 6931778.249405717,
        "Time(s)": 350
    },
    {
        "Altitude(m)": 559246.3349489375,
        "Argument of Periapsis(deg)": 0.012548825262404526,
        "Eccentricity": 0.0,
        "Inclination(deg)": 53.0,
        "Latitude(deg)": -21.068790610661598,
        "Longitude(deg)": -148.2729450950193,
        "Mean Anomaly(deg)": -26.524976671958242,
        "RAAN(deg)": 329.981324277211,
        "Satellite Name": "Starlink Shell 1 1471",
        "Satellite Number": 1471,
        "Semi-Major Axis(m)": 6931778.249405717,
        "Time(s)": 360
    },
    {
        "Altitude(m)": 559086.4508647014,
        "Argument of Periapsis(deg)": 0.012897403741915765,
        "Eccentricity": 0.0,
        "Inclination(deg)": 53.0,
        "Latitude(deg)": -20.586915229336217,
        "Longitude(deg)": -147.88394039435215,
        "Mean Anomaly(deg)": -25.898145468401495,
        "RAAN(deg)": 329.9808055071335,
        "Satellite Name": "Starlink Shell 1 1471",
        "Satellite Number": 1471,
        "Semi-Major Axis(m)": 6931778.249405717,
        "Time(s)": 370
    }
]